P22dgNQ 21.3  0.15  K258K  22.42104  340.52148  275.13879   16.86942  0.5527258  0.24904667   2.5019707                  3   1    0 days 0.19         NEOCPV1301
P22dgNQ 21.0  0.15  K258K  17.58144  338.36186  276.07030   18.12686  0.6275539  0.19167243   2.9791768                  3   1    0 days 0.19         NEOCPV1302
P22dgNQ 22.3  0.15  K258K 329.45292  138.76086  223.30529   10.92766  0.0491135  0.58998716   1.4079082                  3   1    0 days 0.19         NEOCPV1303
P22dgNQ 20.0  0.15  K258K 333.93125  225.75908  195.58103   25.06146  0.6170693  0.20297290   2.8675479                  3   1    0 days 0.19         NEOCPV1304
P22dgNQ 20.1  0.15  K258K  11.10456  339.93577  271.40347   20.70181  0.7410378  0.10299590   4.5073653                  3   1    0 days 0.19         NEOCPV1305
P22dgNQ 20.9  0.15  K258K 325.01117  218.16170  195.92537   20.35238  0.4778670  0.31751426   2.1279458                  3   1    0 days 0.19         NEOCPV1306
P22dgNQ 19.0  0.15  K258K 102.99013  326.46915  237.07422   21.61087  0.2369478  0.34916443   1.9973280                  3   1    0 days 0.19         NEOCPV1307
P22dgNQ 19.8  0.15  K258K 348.97238  225.29722  191.62801   27.57868  0.7764710  0.09335488   4.8125808                  3   1    0 days 0.19         NEOCPV1308
P22dgNQ 21.9  0.15  K258K   0.09173  322.99412  297.38421   21.70958  0.9876580  0.00147826  76.3193741                  3   1    0 days 0.19         NEOCPV1309
P22dgNQ 21.4  0.15  K258K 311.53223  159.69279  223.40486   13.88669  0.0639439  0.50822748   1.5551202                  3   1    0 days 0.19         NEOCPV1310
P22dgNQ 20.4  0.15  K258K  45.68750  354.90916  252.40777   17.33605  0.3467451  0.33594728   2.0493775                  3   1    0 days 0.19         NEOCPV1311
P22dgNQ 20.1  0.15  K258K  40.05877  352.68137  253.22285   18.26403  0.4156413  0.29001174   2.2604366                  3   1    0 days 0.19         NEOCPV1312
P22dgNQ 21.1  0.15  K258K 336.00646  223.82294  188.34900   22.25556  0.5899157  0.24802707   2.5088229                  3   1    0 days 0.19         NEOCPV1313
P22dgNQ 24.5  0.15  K258K 351.51716  250.55071  157.20688   28.32012  0.7862153  0.16031948   3.3559220                  3   1    0 days 0.19         NEOCPV1314
P22dgNQ 20.4  0.15  K258K   3.43527  336.05042  277.18123   20.90527  0.8784184  0.03720474   8.8866318                  3   1    0 days 0.19         NEOCPV1315
P22dgNQ 20.4  0.15  K258K 263.41125  212.92174  222.26405   17.71647  0.0841581  0.44396132   1.7017900                  3   1    0 days 0.19         NEOCPV1316
P22dgNQ 21.2  0.15  K258K 302.93948  201.48289  208.20234   16.52407  0.2211041  0.45386222   1.6769497                  3   1    0 days 0.19         NEOCPV1317
P22dgNQ 20.3  0.15  K258K   5.88012  334.13272  277.38444   21.39965  0.8308363  0.05996710   6.4643871                  3   1    0 days 0.19         NEOCPV1318
P22dgNQ 20.1  0.15  K258K   5.15441  333.67623  276.25399   21.56774  0.8490168  0.05134923   7.1688050                  3   1    0 days 0.19         NEOCPV1319
P22dgNQ 21.6  0.15  K258K  14.54934  334.16309  283.39155   17.38338  0.6550967  0.18653415   3.0336385                  3   1    0 days 0.19         NEOCPV1320
P22dgNQ 22.1  0.15  K258K  15.83980  331.29352  288.31837   16.49372  0.6223992  0.22296615   2.6934573                  3   1    0 days 0.19         NEOCPV1321
P22dgNQ 20.8  0.15  K258K 293.48812  206.71168  211.44153   17.26266  0.2029708  0.45080581   1.6845208                  3   1    0 days 0.19         NEOCPV1322
P22dgNQ 20.7  0.15  K258K   1.91880  330.37536  283.96325   21.42559  0.9160647  0.02305782  12.2252357                  3   1    0 days 0.19         NEOCPV1323
P22dgNQ 21.0  0.15  K258K 345.50651  227.05216  185.82979   24.22153  0.7133347  0.15761153   3.3942518                  3   1    0 days 0.19         NEOCPV1324
P22dgNQ 19.8  0.15  K258K 147.17948  309.76439  229.47468   19.27679  0.0570977  0.40228305   1.8173904                  3   1    0 days 0.19         NEOCPV1325
P22dgNQ 22.2  0.15  K258K   0.13225  319.81019  301.26637   21.95767  0.9839928  0.00228173  57.1426503                  3   1    0 days 0.19         NEOCPV1326
P22dgNQ 23.3  0.15  K258K 357.76712  245.19083  161.80525   29.96381  0.9118090  0.04057137   8.3879587                  3   1    0 days 0.19         NEOCPV1327
P22dgNQ 20.5  0.15  K258K  18.42466  342.67694  270.19150   18.84426  0.6252890  0.17827242   3.1266548                  3   1    0 days 0.19         NEOCPV1328
P22dgNQ 19.5  0.15  K258K   5.06903  337.15575  270.91541   22.55174  0.8558003  0.04335367   8.0251308                  3   1    0 days 0.19         NEOCPV1329
P22dgNQ 22.3  0.15  K258K  36.19759  347.67238  271.97208   12.32164  0.3460849  0.44222546   1.7062404                  3   1    0 days 0.19         NEOCPV1330
P22dgNQ 20.4  0.15  K258K   2.49143  335.43774  277.88323   21.12160  0.9018255  0.02726640  10.9324494                  3   1    0 days 0.19         NEOCPV1331
P22dgNQ 21.2  0.15  K258K  24.08293   70.08615  232.32857   14.12141  0.0542033  0.48278516   1.6092868                  3   1    0 days 0.19         NEOCPV1332
P22dgNQ 24.0  0.15  K258K 350.39424  248.57295  159.73914   27.36090  0.7695280  0.17221649   3.1995303                  3   1    0 days 0.19         NEOCPV1333
P22dgNQ 21.0  0.15  K258K   4.73048  333.49080  283.53791   20.23464  0.8395720  0.05843266   6.5770669                  3   1    0 days 0.19         NEOCPV1334
P22dgNQ 22.0  0.15  K258K 354.87431  106.85506  227.61668   11.76306  0.0570363  0.54723414   1.4803143                  3   1    0 days 0.19         NEOCPV1335
P22dgNQ 19.9  0.15  K258K   5.77324  336.05326  274.51542   22.01835  0.8359550  0.05402918   6.9297431                  3   1    0 days 0.19         NEOCPV1336
P22dgNQ 20.3  0.15  K258K 357.95959  229.42420  183.93418   29.26985  0.9249400  0.02153303  12.7957572                  3   1    0 days 0.19         NEOCPV1337
P22dgNQ 19.4  0.15  K258K 338.27433  227.02895  196.25896   27.22565  0.6738709  0.15290940   3.4634845                  3   1    0 days 0.19         NEOCPV1338
P22dgNQ 21.4  0.15  K258K 302.57953  202.61413  207.67143   15.82723  0.2230013  0.47270929   1.6320744                  3   1    0 days 0.19         NEOCPV1339
P22dgNQ 20.5  0.15  K258K   6.64611  338.51030  276.48594   20.27853  0.8055298  0.07167766   5.7395806                  3   1    0 days 0.19         NEOCPV1340
P22dgNQ 20.0  0.15  K258K  59.38835    2.31577  243.44984   18.18018  0.2264174  0.35583811   1.9722762                  3   1    0 days 0.19         NEOCPV1341
P22dgNQ 22.0  0.15  K258K  18.21913  333.69892  284.88030   16.15450  0.5920456  0.24347869   2.5399709                  3   1    0 days 0.19         NEOCPV1342
P22dgNQ 19.5  0.15  K258K 323.69852  225.17833  200.21726   25.48314  0.5393002  0.23130825   2.6283022                  3   1    0 days 0.19         NEOCPV1343
P22dgNQ 22.2  0.15  K258K 313.54453  224.48036  188.88563   16.46331  0.3583672  0.48621114   1.6017182                  3   1    0 days 0.19         NEOCPV1344
P22dgNQ 23.4  0.15  K258K 357.22333  245.41495  161.38420   29.61471  0.8976011  0.05078457   7.2218459                  3   1    0 days 0.20         NEOCPV1345
P22dgNQ 19.8  0.15  K258K 337.54332  222.52703  196.43629   25.23448  0.6429966  0.17510977   3.1641894                  3   1    0 days 0.20         NEOCPV1346
P22dgNQ 21.0  0.15  K258K   3.23975  332.58166  284.73607   20.26982  0.8746328  0.04150303   8.2619558                  3   1    0 days 0.20         NEOCPV1347
P22dgNQ 20.1  0.15  K258K  18.32682  344.91161  265.19337   19.57152  0.6415175  0.15961755   3.3657534                  3   1    0 days 0.20         NEOCPV1348
P22dgNQ 21.5  0.15  K258K 308.89271  212.67053  200.10538   16.80755  0.3056984  0.45232622   1.6807439                  3   1    0 days 0.20         NEOCPV1349
P22dgNQ 20.8  0.15  K258K  49.70325   12.73635  245.11836   15.46201  0.2165054  0.40429519   1.8113554                  3   1    0 days 0.20         NEOCPV1350
P22dgNQ 22.3  0.15  K258K 339.45691  235.33536  175.42693   22.49914  0.6260232  0.27073630   2.3664921                  3   1    0 days 0.20         NEOCPV1351
P22dgNQ 18.6  0.15  K258K   6.50470  326.02287  267.43988   25.16925  0.8679370  0.04188051   8.2122363                  3   1    0 days 0.20         NEOCPV1352
P22dgNQ 19.5  0.15  K258K 295.94675  218.32337  212.86667   22.06445  0.3307193  0.33050294   2.0718223                  3   1    0 days 0.20         NEOCPV1353
P22dgNQ 19.9  0.15  K258K 348.09446  224.27577  191.66721   26.77021  0.7605242  0.10420513   4.4724275                  3   1    0 days 0.20         NEOCPV1354
P22dgNQ 25.7  0.15  K258K  20.94724  305.82898  316.70680   15.50525  0.5147662  0.41058050   1.7928220                  3   1    0 days 0.20         NEOCPV1355
P22dgNQ 21.0  0.15  K258K 331.13429  223.25724  190.57352   21.97304  0.5437541  0.27879237   2.3206810                  3   1    0 days 0.20         NEOCPV1356
P22dgNQ 20.2  0.15  K258K   3.24176  335.85558  277.67155   21.64428  0.8829442  0.03392491   9.4505456                  3   1    0 days 0.20         NEOCPV1357
P22dgNQ 19.8  0.15  K258K 262.76974  215.06821  221.34744   19.87304  0.0887609  0.38760857   1.8629755                  3   1    0 days 0.20         NEOCPV1358
P22dgNQ 23.3  0.15  K258K  26.25146  326.85073  293.90075   13.32355  0.4594506  0.39970590   1.8251939                  3   1    0 days 0.20         NEOCPV1359
P22dgNQ 20.0  0.15  K258K 359.69444  227.59224  186.27304   29.26352  0.9790633  0.00312086  46.3753198                  3   1    0 days 0.20         NEOCPV1360
P22dgNQ 21.5  0.15  K258K 310.25775  216.90101  197.30828   17.37478  0.3308576  0.44672982   1.6947517                  3   1    0 days 0.20         NEOCPV1361
P22dgNQ 21.9  0.15  K258K  28.31701   63.45344  233.20501   11.78969  0.0663861  0.54123563   1.4912317                  3   1    0 days 0.20         NEOCPV1362
